{
    "links": {
        "self": "http://www.neowsapp.com/rest/v1/neo/3765029?api_key=iIulBulltgU6a56xZRHN4H3l9WmuAYTsLGpBGhQ2"
    },
    "id": "3765029",
    "neo_reference_id": "3765029",
    "name": "(2016 VF18)",
    "designation": "2016 VF18",
    "nasa_jpl_url": "http://ssd.jpl.nasa.gov/sbdb.cgi?sstr=3765029",
    "absolute_magnitude_h": 29.873,
    "estimated_diameter": {
        "kilometers": {
            "estimated_diameter_min": 0.0028180908,
            "estimated_diameter_max": 0.0063014425
        },
        "meters": {
            "estimated_diameter_min": 2.8180907641,
            "estimated_diameter_max": 6.3014425153
        },
        "miles": {
            "estimated_diameter_min": 0.0017510799,
            "estimated_diameter_max": 0.0039155336
        },
        "feet": {
            "estimated_diameter_min": 9.2457049025,
            "estimated_diameter_max": 20.6740246619
        }
    },
    "is_potentially_hazardous_asteroid": false,
    "close_approach_data": [
        {
            "close_approach_date": "2016-07-16",
            "close_approach_date_full": "2016-Jul-16 20:53",
            "epoch_date_close_approach": 1468702380000,
            "relative_velocity": {
                "kilometers_per_second": "14.8577188866",
                "kilometers_per_hour": "53487.7879916437",
                "miles_per_hour": "33235.2313773633"
            },
            "miss_distance": {
                "astronomical": "0.0493246541",
                "lunar": "19.1872904449",
                "kilometers": "7378863.191846767",
                "miles": "4585012.9775367046"
            },
            "orbiting_body": "Mars"
        },
        {
            "close_approach_date": "2016-11-10",
            "close_approach_date_full": "2016-Nov-10 11:35",
            "epoch_date_close_approach": 1478777700000,
            "relative_velocity": {
                "kilometers_per_second": "13.7343642339",
                "kilometers_per_hour": "49443.7112420378",
                "miles_per_hour": "30722.3993548096"
            },
            "miss_distance": {
                "astronomical": "0.0004680444",
                "lunar": "0.1820692716",
                "kilometers": "70018.445305428",
                "miles": "43507.4444457864"
            },
            "orbiting_body": "Earth"
        },
        {
            "close_approach_date": "2016-11-10",
            "close_approach_date_full": "2016-Nov-10 12:14",
            "epoch_date_close_approach": 1478780040000,
            "relative_velocity": {
                "kilometers_per_second": "12.6504378471",
                "kilometers_per_hour": "45541.5762494567",
                "miles_per_hour": "28297.7644201138"
            },
            "miss_distance": {
                "astronomical": "0.002202736",
                "lunar": "0.856864304",
                "kilometers": "329524.61377232",
                "miles": "204757.100285216"
            },
            "orbiting_body": "Moon"
        }
    ],
    "orbital_data": {
        "orbit_id": "2",
        "orbit_determination_date": "2017-04-06 08:22:11",
        "first_observation_date": "2016-11-11",
        "last_observation_date": "2016-11-11",
        "data_arc_in_days": null,
        "observations_used": 10,
        "orbit_uncertainty": "9",
        "minimum_orbit_intersection": ".000375003",
        "jupiter_tisserand_invariant": "2.942",
        "epoch_osculation": "2457703.5",
        "eccentricity": ".6810809751848753",
        "semi_major_axis": "2.779144699874701",
        "inclination": ".7662559384997412",
        "ascending_node_longitude": "229.7234216818934",
        "orbital_period": "1692.252506775629",
        "perihelion_distance": ".8863221175041621",
        "perihelion_argument": "136.3424784267727",
        "aphelion_distance": "4.67196728224524",
        "perihelion_time": "2457673.257296992610",
        "mean_anomaly": "6.433657529871176",
        "mean_motion": ".2127342099116957",
        "equinox": "J2000",
        "orbit_class": {
            "orbit_class_type": "APO",
            "orbit_class_description": "Near-Earth asteroid orbits which cross the Earth’s orbit similar to that of 1862 Apollo",
            "orbit_class_range": "a (semi-major axis) > 1.0 AU; q (perihelion) < 1.017 AU"
        }
    },
    "is_sentry_object": false
}